COSMOS 2433 (720)       
1 32275U 07052A   25058.02639640 -.00000043  00000+0  00000+0 0  9999
2 32275  65.8277 331.8813 0002812 280.7415  79.2687  2.13103877134934
COSMOS 2432 (719)       
1 32276U 07052B   25058.35603199 -.00000043  00000+0  00000+0 0  9996
2 32276  65.8429 331.9890 0011292 329.0573 229.2788  2.13103123134960
COSMOS 2434 (721)       
1 32393U 07065A   25057.73947249  .00000045  00000+0  00000+0 0  9999
2 32393  64.3183 207.9590 0004265  74.0956 317.5422  2.13101286133642
COSMOS 2436 (723)       
1 32395U 07065C   25058.94671046  .00000044  00000+0  00000+0 0  9993
2 32395  64.3266 207.9856 0017245   7.8504   4.2446  2.13100134133632
COSMOS 2456 (730)       
1 36111U 09070A   25058.66768295  .00000058  00000+0  00000+0 0  9998
2 36111  64.7385  87.1938 0006083 301.4372 237.4872  2.13103609118312
COSMOS 2457 (733)       
1 36112U 09070B   25059.28682470  .00000054  00000+0  00000+0 0  9994
2 36112  64.7237  87.0256 0003046 196.5861 229.1056  2.13101029118375
COSMOS 2460 (732)       
1 36402U 10007C   25059.33472272 -.00000042  00000+0  00000+0 0  9999
2 36402  65.6783 330.4578 0002116 356.0518 101.6878  2.13106055116721
COSMOS 2476 (744)       
1 37867U 11064A   25059.48018429  .00000055  00000+0  00000+0 0  9998
2 37867  65.0066  88.8956 0024867 240.6300 112.3819  2.13101503103715
COSMOS 2477 (745)       
1 37868U 11064B   25058.95904425  .00000058  00000+0  00000+0 0  9993
2 37868  65.0132  88.9883 0022057 242.0511 250.5656  2.13102941103642
COSMOS 2475 (743)       
1 37869U 11064C   25059.00544380  .00000058  00000+0  00000+0 0  9991
2 37869  65.0201  89.0039 0027465 254.6253 230.8146  2.13101625103659
COSMOS 2485 (747)       
1 39155U 13019A   25059.42975942  .00000056  00000+0  00000+0 0  9999
2 39155  65.1616  89.5345 0025156 236.6963 123.1389  2.13104391 92189
COSMOS 2492 (754)       
1 39620U 14012A   25057.50894515 -.00000042  00000+0  00000+0 0  9999
2 39620  65.5592 330.0592 0014095 324.8248  35.1254  2.13103120 85103
COSMOS 2500 (755)       
1 40001U 14032A   25059.09271086 -.00000041  00000+0  00000+0 0  9993
2 40001  65.4948 329.7907 0004991 211.8441 148.1736  2.13105895 83357
COSMOS 2501 (702K)      
1 40315U 14075A   25058.87944373  .00000042  00000+0  00000+0 0  9999
2 40315  63.6184 206.7969 0019627 204.7133 155.1554  2.13101260 79746
COSMOS 2514 (751)       
1 41330U 16008A   25059.33213315 -.00000040  00000+0  00000+0 0  9991
2 41330  65.2873 329.2271 0009062 216.8574 143.1295  2.13102552 70520
COSMOS 2522 (752)       
1 42939U 17055A   25057.76352541  .00000044  00000+0  00000+0 0  9993
2 42939  64.0799 208.0726 0006440 227.9367 131.9746  2.13101762 57847
COSMOS 2527 (756)       
1 43508U 18053A   25058.19268480  .00000063  00000+0  00000+0 0  9992
2 43508  65.3200  89.7814 0009816 242.7007 117.2803  2.13102255 52157
COSMOS 2529 (757)       
1 43687U 18086A   25057.82166295  .00000045  00000+0  00000+0 0  9996
2 43687  64.2956 208.6519 0007344 257.3969 102.4871  2.13101947 49152
COSMOS 2534 (758)       
1 44299U 19030A   25059.51735906  .00000046  00000+0  00000+0 0  9996
2 44299  64.3690 208.5719 0009409 285.4778  69.5536  2.13102056 44825
COSMOS 2544 (759)       
1 44850U 19088A   25058.60623099  .00000061  00000+0  00000+0 0  9997
2 44850  65.3074  89.5997 0015576 259.3123 100.5919  2.13102022 40602
COSMOS 2545 (760)       
1 45358U 20018A   25059.27213889 -.00000041  00000+0  00000+0 0  9991
2 45358  64.6257 329.0309 0008713 256.0618 103.8905  2.13102397 38566
COSMOS 2547 (705K)      
1 46805U 20075A   25058.51941601  .00000044  00000+0  00000+0 0  9990
2 46805  64.5987 208.3232 0006238 231.6867 128.2213  2.13102924 33791
COSMOS 2557 (706K)      
1 52984U 22075A   25058.21711168 -.00000044  00000+0  00000+0 0  9998
2 52984  64.5600 331.1742 0012432 285.3784  74.5277  2.13101703 20597
COSMOS 2559 (707K)      
1 54031U 22130A   25059.09930551 -.00000044  00000+0  00000+0 0  9991
2 54031  64.5317 331.2521 0005767 233.5512 126.4410  2.13101119 18583
COSMOS 2564 (761)       
1 54377U 22161A   25058.35016921  .00000045  00000+0  00000+0 0  9992
2 54377  64.7402 208.4795 0008489 207.7758 152.1436  2.13101948 17516
COSMOS 2569 (703K)      
1 57517U 23114A   25059.30410474  .00000056  00000+0  00000+0 0  9999
2 57517  65.0382  88.6332 0012708 291.9692  67.9719  2.13104044 12165
